{"type": "FeatureCollection", "features": [ {"type": "Feature", "properties": {"norad_id": 28649, "name": "IRS-P5 (CARTOSAT-1)", "group": "resource", "lat": 79.8690061180333, "lon": -20.553402572399534, "alt_km": 588.8175147252732, "timestamp": "2025-12-27T14:26:30.173014+00:00", "meta": {"OBJECT_NAME": "IRS-P5 (CARTOSAT-1)", "OBJECT_ID": "2005-017A", "EPOCH": "2025-12-27T01:10:47.096544", "MEAN_MOTION": 14.90453087, "ECCENTRICITY": 4.68e-05, "INCLINATION": 97.5482, "RA_OF_ASC_NODE": 26.8273, "ARG_OF_PERICENTER": 77.8552, "MEAN_ANOMALY": 282.2719, "EPHEMERIS_TYPE": 0, "CLASSIFICATION_TYPE": "U", "NORAD_CAT_ID": 28649, "ELEMENT_SET_NO": 999, "REV_AT_EPOCH": 11817, "BSTAR": 0.00019183665, "MEAN_MOTION_DOT": 1.818e-05, "MEAN_MOTION_DDOT": 0}, "tle": {"line1": "1 28649U 05017A   25361.04915621  .00001818  00000+0  19184-3 0  9990", "line2": "2 28649  97.5482  26.8273 0000468  77.8552 282.2719 14.90453087118176"}}, "geometry": {"type": "Point", "coordinates": [-20.553402572399534, 79.8690061180333]}}, {"type": "Feature", "properties": {"norad_id": 28893, "name": "SINAH 1", "group": "resource", "lat": 73.84631718939593, "lon": -19.695332690200292, "alt_km": 662.35792119701, "timestamp": "2025-12-27T14:26:30.173025+00:00", "meta": {"OBJECT_NAME": "SINAH 1", "OBJECT_ID": "2005-043D", "EPOCH": "2025-12-27T07:24:30.335616", "MEAN_MOTION": 14.63978019, "ECCENTRICITY": 0.00157294, "INCLINATION": 98.261, "RA_OF_ASC_NODE": 129.9057, "ARG_OF_PERICENTER": 94.5733, "MEAN_ANOMALY": 265.7266, "EPHEMERIS_TYPE": 0, "CLASSIFICATION_TYPE": "U", "NORAD_CAT_ID": 28893, "ELEMENT_SET_NO": 999, "REV_AT_EPOCH": 7537, "BSTAR": 0.00011526509, "MEAN_MOTION_DOT": 5.56e-06, "MEAN_MOTION_DDOT": 0}, "tle": {"line1": "1 28893U 05043D   25361.30868444  .00000556  00000+0  11527-3 0  9990", "line2": "2 28893  98.2610 129.9057 0015729  94.5733 265.7266 14.63978019 75370"}}, "geometry": {"type": "Point", "coordinates": [-19.695332690200292, 73.84631718939593]}}, {"type": "Feature", "properties": {"norad_id": 29079, "name": "EROS B", "group": "resource", "lat": 51.36982771240755, "lon": 109.64750521275457, "alt_km": 345.12802047274454, "timestamp": "2025-12-27T14:26:30.173035+00:00", "meta": {"OBJECT_NAME": "EROS B", "OBJECT_ID": "2006-014A", "EPOCH": "2025-12-27T08:06:57.203712", "MEAN_MOTION": 15.73281478, "ECCENTRICITY": 0.00050448, "INCLINATION": 97.3443, "RA_OF_ASC_NODE": 118.6576, "ARG_OF_PERICENTER": 313.422, "MEAN_ANOMALY": 46.6623, "EPHEMERIS_TYPE": 0, "CLASSIFICATION_TYPE": "U", "NORAD_CAT_ID": 29079, "ELEMENT_SET_NO": 999, "REV_AT_EPOCH": 9309, "BSTAR": 0.0015121188, "MEAN_MOTION_DOT": 0.00213092, "MEAN_MOTION_DDOT": 0}, "tle": {"line1": "1 29079U 06014A   25361.33816208  .00213092  00000+0  15121-2 0  9994", "line2": "2 29079  97.3443 118.6576 0005044 313.4220  46.6623 15.73281478 93095"}}, "geometry": {"type": "Point", "coordinates": [109.64750521275457, 51.36982771240755]}}, {"type": "Feature", "properties": {"norad_id": 29228, "name": "RESURS-DK 1", "group": "resource", "lat": 61.07699190158162, "lon": -157.9894285214441, "alt_km": 526.1774655810841, "timestamp": "2025-12-27T14:26:30.173046+00:00", "meta": {"OBJECT_NAME": "RESURS-DK 1", "OBJECT_ID": "2006-021A", "EPOCH": "2025-12-27T07:36:04.257216", "MEAN_MOTION": 15.12243621, "ECCENTRICITY": 0.00069834, "INCLINATION": 69.9337, "RA_OF_ASC_NODE": 64.164, "ARG_OF_PERICENTER": 246.1035, "MEAN_ANOMALY": 113.94, "EPHEMERIS_TYPE": 0, "CLASSIFICATION_TYPE": "U", "NORAD_CAT_ID": 29228, "ELEMENT_SET_NO": 999, "REV_AT_EPOCH": 7658, "BSTAR": 0.00019269204, "MEAN_MOTION_DOT": 3.233e-05, "MEAN_MOTION_DDOT": 0}, "tle": {"line1": "1 29228U 06021A   25361.31671594  .00003233  00000+0  19269-3 0  9995", "line2": "2 29228  69.9337  64.1640 0006983 246.1035 113.9400 15.12243621 76581"}}, "geometry": {"type": "Point", "coordinates": [-157.9894285214441, 61.07699190158162]}}, {"type": "Feature", "properties": {"norad_id": 29268, "name": "ARIRANG-2 (KOMPSAT-2)", "group": "resource", "lat": 36.71712495782777, "lon": -176.5378829797569, "alt_km": 683.1012665708631, "timestamp": "2025-12-27T14:26:30.173056+00:00", "meta": {"OBJECT_NAME": "ARIRANG-2 (KOMPSAT-2)", "OBJECT_ID": "2006-031A", "EPOCH": "2025-12-27T08:16:24.253824", "MEAN_MOTION": 14.64506792, "ECCENTRICITY": 0.00131329, "INCLINATION": 97.8261, "RA_OF_ASC_NODE": 189.1056, "ARG_OF_PERICENTER": 258.6812, "MEAN_ANOMALY": 224.2162, "EPHEMERIS_TYPE": 0, "CLASSIFICATION_TYPE": "U", "NORAD_CAT_ID": 29268, "ELEMENT_SET_NO": 999, "REV_AT_EPOCH": 3632, "BSTAR": 0.00010011544, "MEAN_MOTION_DOT": 4.86e-06, "MEAN_MOTION_DDOT": 0}, "tle": {"line1": "1 29268U 06031A   25361.34472516  .00000486  00000+0  10012-3 0  9990", "line2": "2 29268  97.8261 189.1056 0013132 258.6812 224.2162 14.64506792 36321"}}, "geometry": {"type": "Point", "coordinates": [-176.5378829797569, 36.71712495782777]}}, {"type": "Feature", "properties": {"norad_id": 29709, "name": "LAPAN-TUBSAT", "group": "resource", "lat": 23.370755305763858, "lon": -11.475645874641383, "alt_km": 601.9057239733065, "timestamp": "2025-12-27T14:26:30.173067+00:00", "meta": {"OBJECT_NAME": "LAPAN-TUBSAT", "OBJECT_ID": "2007-001A", "EPOCH": "2025-12-27T06:15:14.518080", "MEAN_MOTION": 14.85692522, "ECCENTRICITY": 0.00130379, "INCLINATION": 98.1269, "RA_OF_ASC_NODE": 351.7164, "ARG_OF_PERICENTER": 30.8211, "MEAN_ANOMALY": 329.3766, "EPHEMERIS_TYPE": 0, "CLASSIFICATION_TYPE": "U", "NORAD_CAT_ID": 29709, "ELEMENT_SET_NO": 999, "REV_AT_EPOCH": 2562, "BSTAR": 0.00013150166, "MEAN_MOTION_DOT": 1.084e-05, "MEAN_MOTION_DDOT": 0}, "tle": {"line1": "1 29709U 07001A   25361.26058470  .00001084  00000+0  13150-3 0  9999", "line2": "2 29709  98.1269 351.7164 0013037  30.8211 329.3766 14.85692522 25625"}}, "geometry": {"type": "Point", "coordinates": [-11.475645874641383, 23.370755305763858]}}, {"type": "Feature", "properties": {"norad_id": 31113, "name": "HAIYANG-1B", "group": "resource", "lat": -45.224839167196386, "lon": 156.77185157264609, "alt_km": 801.3291481650513, "timestamp": "2025-12-27T14:26:30.173077+00:00", "meta": {"OBJECT_NAME": "HAIYANG-1B", "OBJECT_ID": "2007-010A", "EPOCH": "2025-12-27T04:59:54.758688", "MEAN_MOTION": 14.30969898, "ECCENTRICITY": 0.00134765, "INCLINATION": 98.3331, "RA_OF_ASC_NODE": 344.8896, "ARG_OF_PERICENTER": 356.379, "MEAN_ANOMALY": 3.7294, "EPHEMERIS_TYPE": 0, "CLASSIFICATION_TYPE": "U", "NORAD_CAT_ID": 31113, "ELEMENT_SET_NO": 999, "REV_AT_EPOCH": 97603, "BSTAR": 7.5272376e-05, "MEAN_MOTION_DOT": 1.56e-06, "MEAN_MOTION_DDOT": 0}, "tle": {"line1": "1 31113U 07010A   25361.20827267  .00000156  00000+0  75272-4 0  9996", "line2": "2 31113  98.3331 344.8896 0013476 356.3790   3.7294 14.30969898976031"}}, "geometry": {"type": "Point", "coordinates": [156.77185157264609, -45.224839167196386]}}, {"type": "Feature", "properties": {"norad_id": 31598, "name": "COSMO-SKYMED 1", "group": "resource", "lat": 18.503655739609233, "lon": 9.757160143364011, "alt_km": 579.9321347436626, "timestamp": "2025-12-27T14:26:30.173088+00:00", "meta": {"OBJECT_NAME": "COSMO-SKYMED 1", "OBJECT_ID": "2007-023A", "EPOCH": "2025-12-27T07:18:06.754176", "MEAN_MOTION": 14.95872577, "ECCENTRICITY": 0.00010951, "INCLINATION": 97.8838, "RA_OF_ASC_NODE": 186.7998, "ARG_OF_PERICENTER": 78.0364, "MEAN_ANOMALY": 282.0979, "EPHEMERIS_TYPE": 0, "CLASSIFICATION_TYPE": "U", "NORAD_CAT_ID": 31598, "ELEMENT_SET_NO": 999, "REV_AT_EPOCH": 408, "BSTAR": 0.00033969969, "MEAN_MOTION_DOT": 3.739e-05, "MEAN_MOTION_DDOT": 0}, "tle": {"line1": "1 31598U 07023A   25361.30424484  .00003739  00000+0  33970-3 0  9990", "line2": "2 31598  97.8838 186.7998 0001095  78.0364 282.0979 14.95872577  4086"}}, "geometry": {"type": "Point", "coordinates": [9.757160143364011, 18.503655739609233]}}, {"type": "Feature", "properties": {"norad_id": 31698, "name": "TERRASAR-X", "group": "resource", "lat": -16.979200496187197, "lon": 9.053343301323634, "alt_km": 513.4609216475646, "timestamp": "2025-12-27T14:26:30.173098+00:00", "meta": {"OBJECT_NAME": "TERRASAR-X", "OBJECT_ID": "2007-026A", "EPOCH": "2025-12-26T13:13:25.268160", "MEAN_MOTION": 15.19159007, "ECCENTRICITY": 0.0001831, "INCLINATION": 97.4449, "RA_OF_ASC_NODE": 5.7296, "ARG_OF_PERICENTER": 80.7089, "MEAN_ANOMALY": 279.4352, "EPHEMERIS_TYPE": 0, "CLASSIFICATION_TYPE": "U", "NORAD_CAT_ID": 31698, "ELEMENT_SET_NO": 999, "REV_AT_EPOCH": 2701, "BSTAR": 7.4512e-05, "MEAN_MOTION_DOT": 1.498e-05, "MEAN_MOTION_DDOT": 0}, "tle": {"line1": "1 31698U 07026A   25360.55098690  .00001498  00000+0  74512-4 0  9994", "line2": "2 31698  97.4449   5.7296 0001831  80.7089 279.4352 15.19159007 27010"}}, "geometry": {"type": "Point", "coordinates": [9.053343301323634, -16.979200496187197]}}, {"type": "Feature", "properties": {"norad_id": 32060, "name": "WORLDVIEW-1 (WV-1)", "group": "resource", "lat": -77.67669788106053, "lon": -97.53795915308883, "alt_km": 500.95872184975724, "timestamp": "2025-12-27T14:26:30.173108+00:00", "meta": {"OBJECT_NAME": "WORLDVIEW-1 (WV-1)", "OBJECT_ID": "2007-041A", "EPOCH": "2025-12-27T07:00:01.279008", "MEAN_MOTION": 15.23997296, "ECCENTRICITY": 0.00030075, "INCLINATION": 97.3816, "RA_OF_ASC_NODE": 118.5576, "ARG_OF_PERICENTER": 346.3085, "MEAN_ANOMALY": 13.807, "EPHEMERIS_TYPE": 0, "CLASSIFICATION_TYPE": "U", "NORAD_CAT_ID": 32060, "ELEMENT_SET_NO": 999, "REV_AT_EPOCH": 1669, "BSTAR": 0.0003911353, "MEAN_MOTION_DOT": 9.407e-05, "MEAN_MOTION_DDOT": 0}, "tle": {"line1": "1 32060U 07041A   25361.29168147  .00009407  00000+0  39114-3 0  9998", "line2": "2 32060  97.3816 118.5576 0003007 346.3085  13.8070 15.23997296 16693"}}, "geometry": {"type": "Point", "coordinates": [-97.53795915308883, -77.67669788106053]}}]}